{
    "links": {
        "self": "http://www.neowsapp.com/rest/v1/neo/3991655?api_key=iIulBulltgU6a56xZRHN4H3l9WmuAYTsLGpBGhQ2"
    },
    "id": "3991655",
    "neo_reference_id": "3991655",
    "name": "(2020 DB1)",
    "designation": "2020 DB1",
    "nasa_jpl_url": "http://ssd.jpl.nasa.gov/sbdb.cgi?sstr=3991655",
    "absolute_magnitude_h": 24.498,
    "estimated_diameter": {
        "kilometers": {
            "estimated_diameter_min": 0.0334930715,
            "estimated_diameter_max": 0.0748927847
        },
        "meters": {
            "estimated_diameter_min": 33.4930715026,
            "estimated_diameter_max": 74.892784655
        },
        "miles": {
            "estimated_diameter_min": 0.0208116233,
            "estimated_diameter_max": 0.0465362045
        },
        "feet": {
            "estimated_diameter_min": 109.8854087085,
            "estimated_diameter_max": 245.7112436075
        }
    },
    "is_potentially_hazardous_asteroid": false,
    "close_approach_data": [
        {
            "close_approach_date": "2020-02-12",
            "close_approach_date_full": "2020-Feb-12 05:52",
            "epoch_date_close_approach": 1581486720000,
            "relative_velocity": {
                "kilometers_per_second": "14.6978925081",
                "kilometers_per_hour": "52912.4130291769",
                "miles_per_hour": "32877.7157513794"
            },
            "miss_distance": {
                "astronomical": "0.01813552",
                "lunar": "7.05471728",
                "kilometers": "2713035.1633424",
                "miles": "1685801.87882912"
            },
            "orbiting_body": "Earth"
        },
        {
            "close_approach_date": "2022-02-19",
            "close_approach_date_full": "2022-Feb-19 06:50",
            "epoch_date_close_approach": 1645253400000,
            "relative_velocity": {
                "kilometers_per_second": "17.6857233047",
                "kilometers_per_hour": "63668.603897095",
                "miles_per_hour": "39561.1944603921"
            },
            "miss_distance": {
                "astronomical": "0.1012310534",
                "lunar": "39.3788797726",
                "kilometers": "15143949.966496258",
                "miles": "9410014.1610260404"
            },
            "orbiting_body": "Earth"
        },
        {
            "close_approach_date": "2123-03-06",
            "close_approach_date_full": "2123-Mar-06 11:57",
            "epoch_date_close_approach": 4833777420000,
            "relative_velocity": {
                "kilometers_per_second": "24.5556269421",
                "kilometers_per_hour": "88400.2569915013",
                "miles_per_hour": "54928.481906747"
            },
            "miss_distance": {
                "astronomical": "0.344899339",
                "lunar": "134.165842871",
                "kilometers": "51596206.47880793",
                "miles": "32060396.045612234"
            },
            "orbiting_body": "Earth"
        }
    ],
    "orbital_data": {
        "orbit_id": "4",
        "orbit_determination_date": "2020-03-04 05:52:59",
        "first_observation_date": "2020-02-17",
        "last_observation_date": "2020-03-01",
        "data_arc_in_days": 13,
        "observations_used": 32,
        "orbit_uncertainty": "8",
        "minimum_orbit_intersection": ".0133811",
        "jupiter_tisserand_invariant": "4.182",
        "epoch_osculation": "2458899.5",
        "eccentricity": ".5186964970616892",
        "semi_major_axis": "1.596938731766737",
        "inclination": "12.92821868887675",
        "ascending_node_longitude": "140.7142810380947",
        "orbital_period": "737.1074629701631",
        "perihelion_distance": ".7686122055771939",
        "perihelion_argument": "294.5601767988687",
        "aphelion_distance": "2.425265257956279",
        "perihelion_time": "2458846.804499281829",
        "mean_anomaly": "25.73624771359756",
        "mean_motion": ".4883955435064863",
        "equinox": "J2000",
        "orbit_class": {
            "orbit_class_type": "APO",
            "orbit_class_description": "Near-Earth asteroid orbits which cross the Earth’s orbit similar to that of 1862 Apollo",
            "orbit_class_range": "a (semi-major axis) > 1.0 AU; q (perihelion) < 1.017 AU"
        }
    },
    "is_sentry_object": false
}